{
  "type": "FeatureCollection",
  "features": [
    {
      "type": "Feature",
      "properties": {
        "norad_id": 34637,
        "name": "COSMOS 2251 DEB",
        "group": "cosmos-2251-debris",
        "lat": -42.38330606698967,
        "lon": 72.5803907247252,
        "alt_km": 731.4854158003836,
        "timestamp": "2025-12-19T18:58:41.980860+00:00",
        "meta_object_name": "COSMOS 2251 DEB",
        "meta_object_id": "1993-036XJ",
        "meta_epoch": "2025-12-19T06:10:11.395776",
        "meta_mean_motion": 14.60150921,
        "meta_eccentricity": 0.00492529,
        "meta_inclination": 74.0498,
        "meta_ra_of_asc_node": 88.7269,
        "meta_arg_of_pericenter": 157.5379,
        "meta_mean_anomaly": 233.6347,
        "meta_ephemeris_type": 0,
        "meta_classification_type": "U",
        "meta_norad_cat_id": 34637,
        "meta_element_set_no": 999,
        "meta_rev_at_epoch": 88622,
        "meta_bstar": 0.00058690488,
        "meta_mean_motion_dot": 2.845e-05,
        "meta_mean_motion_ddot": 0,
        "tle_line1": "1 34637U 93036XJ  25353.25707634  .00002845  00000+0  58690-3 0  9995",
        "tle_line2": "2 34637  74.0498  88.7269 0049252 157.5379 233.6347 14.60150921886229"
      },
      "geometry": {
        "type": "Point",
        "coordinates": [
          72.5803907247252,
          -42.38330606698967
        ]
      }
    },
    {
      "type": "Feature",
      "properties": {
        "norad_id": 34641,
        "name": "COSMOS 2251 DEB",
        "group": "cosmos-2251-debris",
        "lat": 70.38088515723368,
        "lon": -166.22941729251764,
        "alt_km": 718.3596308838996,
        "timestamp": "2025-12-19T18:58:41.980870+00:00",
        "meta_object_name": "COSMOS 2251 DEB",
        "meta_object_id": "1993-036XN",
        "meta_epoch": "2025-12-18T06:23:44.080224",
        "meta_mean_motion": 14.52044087,
        "meta_eccentricity": 0.0018715,
        "meta_inclination": 73.8399,
        "meta_ra_of_asc_node": 71.1098,
        "meta_arg_of_pericenter": 344.6386,
        "meta_mean_anomaly": 71.632,
        "meta_ephemeris_type": 0,
        "meta_classification_type": "U",
        "meta_norad_cat_id": 34641,
        "meta_element_set_no": 999,
        "meta_rev_at_epoch": 88336,
        "meta_bstar": 0.00072302378,
        "meta_mean_motion_dot": 2.902e-05,
        "meta_mean_motion_ddot": 0,
        "tle_line1": "1 34641U 93036XN  25352.26648241  .00002902  00000+0  72302-3 0  9998",
        "tle_line2": "2 34641  73.8399  71.1098 0018715 344.6386  71.6320 14.52044087883363"
      },
      "geometry": {
        "type": "Point",
        "coordinates": [
          -166.22941729251764,
          70.38088515723368
        ]
      }
    },
    {
      "type": "Feature",
      "properties": {
        "norad_id": 34642,
        "name": "COSMOS 2251 DEB",
        "group": "cosmos-2251-debris",
        "lat": -70.43990032246589,
        "lon": -86.24717541495195,
        "alt_km": 1010.1862787300661,
        "timestamp": "2025-12-19T18:58:41.980881+00:00",
        "meta_object_name": "COSMOS 2251 DEB",
        "meta_object_id": "1993-036XP",
        "meta_epoch": "2025-12-18T09:45:59.315328",
        "meta_mean_motion": 13.98988721,
        "meta_eccentricity": 0.02067628,
        "meta_inclination": 74.0043,
        "meta_ra_of_asc_node": 329.9846,
        "meta_arg_of_pericenter": 148.5109,
        "meta_mean_anomaly": 4.4763,
        "meta_ephemeris_type": 0,
        "meta_classification_type": "U",
        "meta_norad_cat_id": 34642,
        "meta_element_set_no": 999,
        "meta_rev_at_epoch": 85372,
        "meta_bstar": 0.00065937627,
        "meta_mean_motion_dot": 1.121e-05,
        "meta_mean_motion_ddot": 0,
        "tle_line1": "1 34642U 93036XP  25352.40693652  .00001121  00000+0  65938-3 0  9990",
        "tle_line2": "2 34642  74.0043 329.9846 0206762 148.5109   4.4763 13.98988721853726"
      },
      "geometry": {
        "type": "Point",
        "coordinates": [
          -86.24717541495195,
          -70.43990032246589
        ]
      }
    },
    {
      "type": "Feature",
      "properties": {
        "norad_id": 34671,
        "name": "COSMOS 2251 DEB",
        "group": "cosmos-2251-debris",
        "lat": -42.455444494187965,
        "lon": -44.12450757141101,
        "alt_km": 669.6543866724551,
        "timestamp": "2025-12-19T18:58:41.980891+00:00",
        "meta_object_name": "COSMOS 2251 DEB",
        "meta_object_id": "1993-036XR",
        "meta_epoch": "2025-12-18T19:44:09.862368",
        "meta_mean_motion": 14.67035809,
        "meta_eccentricity": 0.00110081,
        "meta_inclination": 74.0266,
        "meta_ra_of_asc_node": 122.5523,
        "meta_arg_of_pericenter": 203.3177,
        "meta_mean_anomaly": 308.6526,
        "meta_ephemeris_type": 0,
        "meta_classification_type": "U",
        "meta_norad_cat_id": 34671,
        "meta_element_set_no": 999,
        "meta_rev_at_epoch": 88386,
        "meta_bstar": 0.0012203972,
        "meta_mean_motion_dot": 6.827e-05,
        "meta_mean_motion_ddot": 0,
        "tle_line1": "1 34671U 93036XR  25352.82233637  .00006827  00000+0  12204-2 0  9996",
        "tle_line2": "2 34671  74.0266 122.5523 0011008 203.3177 308.6526 14.67035809883867"
      },
      "geometry": {
        "type": "Point",
        "coordinates": [
          -44.12450757141101,
          -42.455444494187965
        ]
      }
    },
    {
      "type": "Feature",
      "properties": {
        "norad_id": 34672,
        "name": "COSMOS 2251 DEB",
        "group": "cosmos-2251-debris",
        "lat": -11.506786991089145,
        "lon": -70.70635312682028,
        "alt_km": 757.6644666979482,
        "timestamp": "2025-12-19T18:58:41.980901+00:00",
        "meta_object_name": "COSMOS 2251 DEB",
        "meta_object_id": "1993-036XS",
        "meta_epoch": "2025-12-18T13:28:46.255872",
        "meta_mean_motion": 14.36417673,
        "meta_eccentricity": 0.00241418,
        "meta_inclination": 74.0338,
        "meta_ra_of_asc_node": 294.8922,
        "meta_arg_of_pericenter": 5.7391,
        "meta_mean_anomaly": 109.133,
        "meta_ephemeris_type": 0,
        "meta_classification_type": "U",
        "meta_norad_cat_id": 34672,
        "meta_element_set_no": 999,
        "meta_rev_at_epoch": 65261,
        "meta_bstar": 0.00020838077,
        "meta_mean_motion_dot": 5.86e-06,
        "meta_mean_motion_ddot": 0,
        "tle_line1": "1 34672U 93036XS  25352.56164648  .00000586  00000+0  20838-3 0  9992",
        "tle_line2": "2 34672  74.0338 294.8922 0024141   5.7391 109.1330 14.36417673652611"
      },
      "geometry": {
        "type": "Point",
        "coordinates": [
          -70.70635312682028,
          -11.506786991089145
        ]
      }
    },
    {
      "type": "Feature",
      "properties": {
        "norad_id": 34678,
        "name": "COSMOS 2251 DEB",
        "group": "cosmos-2251-debris",
        "lat": 9.498570217338157,
        "lon": -4.380708487121746,
        "alt_km": 777.502443209506,
        "timestamp": "2025-12-19T18:58:41.980911+00:00",
        "meta_object_name": "COSMOS 2251 DEB",
        "meta_object_id": "1993-036XY",
        "meta_epoch": "2025-12-18T11:45:31.328352",
        "meta_mean_motion": 14.30066037,
        "meta_eccentricity": 0.00245747,
        "meta_inclination": 74.0376,
        "meta_ra_of_asc_node": 355.2383,
        "meta_arg_of_pericenter": 42.5322,
        "meta_mean_anomaly": 113.3622,
        "meta_ephemeris_type": 0,
        "meta_classification_type": "U",
        "meta_norad_cat_id": 34678,
        "meta_element_set_no": 999,
        "meta_rev_at_epoch": 87461,
        "meta_bstar": 2.9350181e-05,
        "meta_mean_motion_dot": 5e-07,
        "meta_mean_motion_ddot": 0,
        "tle_line1": "1 34678U 93036XY  25352.48994593  .00000050  00000+0  29350-4 0  9994",
        "tle_line2": "2 34678  74.0376 355.2383 0024574  42.5322 113.3622 14.30066037874610"
      },
      "geometry": {
        "type": "Point",
        "coordinates": [
          -4.380708487121746,
          9.498570217338157
        ]
      }
    },
    {
      "type": "Feature",
      "properties": {
        "norad_id": 34680,
        "name": "COSMOS 2251 DEB",
        "group": "cosmos-2251-debris",
        "lat": -11.532266865245731,
        "lon": 113.04818287513983,
        "alt_km": 698.0597379677183,
        "timestamp": "2025-12-19T18:58:41.980921+00:00",
        "meta_object_name": "COSMOS 2251 DEB",
        "meta_object_id": "1993-036YA",
        "meta_epoch": "2025-12-18T08:39:27.142848",
        "meta_mean_motion": 14.60682322,
        "meta_eccentricity": 0.00065553,
        "meta_inclination": 74.0428,
        "meta_ra_of_asc_node": 119.1245,
        "meta_arg_of_pericenter": 218.9141,
        "meta_mean_anomaly": 172.4418,
        "meta_ephemeris_type": 0,
        "meta_classification_type": "U",
        "meta_norad_cat_id": 34680,
        "meta_element_set_no": 999,
        "meta_rev_at_epoch": 88410,
        "meta_bstar": 0.00092042138,
        "meta_mean_motion_dot": 4.458e-05,
        "meta_mean_motion_ddot": 0,
        "tle_line1": "1 34680U 93036YA  25352.36073082  .00004458  00000+0  92042-3 0  9998",
        "tle_line2": "2 34680  74.0428 119.1245 0006555 218.9141 172.4418 14.60682322884100"
      },
      "geometry": {
        "type": "Point",
        "coordinates": [
          113.04818287513983,
          -11.532266865245731
        ]
      }
    }
  ]
}